{
    "links": {
        "self": "http://www.neowsapp.com/rest/v1/neo/3841831?api_key=iIulBulltgU6a56xZRHN4H3l9WmuAYTsLGpBGhQ2"
    },
    "id": "3841831",
    "neo_reference_id": "3841831",
    "name": "(2019 JD5)",
    "designation": "2019 JD5",
    "nasa_jpl_url": "http://ssd.jpl.nasa.gov/sbdb.cgi?sstr=3841831",
    "absolute_magnitude_h": 25.6,
    "estimated_diameter": {
        "kilometers": {
            "estimated_diameter_min": 0.0201629919,
            "estimated_diameter_max": 0.0450858206
        },
        "meters": {
            "estimated_diameter_min": 20.1629919443,
            "estimated_diameter_max": 45.0858206172
        },
        "miles": {
            "estimated_diameter_min": 0.0125286985,
            "estimated_diameter_max": 0.0280150214
        },
        "feet": {
            "estimated_diameter_min": 66.1515504905,
            "estimated_diameter_max": 147.9193637137
        }
    },
    "is_potentially_hazardous_asteroid": false,
    "close_approach_data": [
        {
            "close_approach_date": "2019-05-03",
            "close_approach_date_full": "2019-May-03 05:44",
            "epoch_date_close_approach": 1556862240000,
            "relative_velocity": {
                "kilometers_per_second": "4.1810956776",
                "kilometers_per_hour": "15051.9444394073",
                "miles_per_hour": "9352.6929212528"
            },
            "miss_distance": {
                "astronomical": "0.1326807781",
                "lunar": "51.6128226809",
                "kilometers": "19848761.793702647",
                "miles": "12333448.6689926486"
            },
            "orbiting_body": "Earth"
        }
    ],
    "orbital_data": {
        "orbit_id": "1",
        "orbit_determination_date": "2019-05-12 10:42:05",
        "first_observation_date": "2019-05-08",
        "last_observation_date": "2019-05-12",
        "data_arc_in_days": 4,
        "observations_used": 10,
        "orbit_uncertainty": "9",
        "minimum_orbit_intersection": ".131099",
        "jupiter_tisserand_invariant": "3.771",
        "epoch_osculation": "2458612.5",
        "eccentricity": ".4184859200810573",
        "semi_major_axis": "1.95623167884091",
        "inclination": "3.690615476180311",
        "ascending_node_longitude": "56.41576907552565",
        "orbital_period": "999.3758676307774",
        "perihelion_distance": "1.13757626482946",
        "perihelion_argument": "162.7266254969554",
        "aphelion_distance": "2.774887092852359",
        "perihelion_time": "2458602.515525696781",
        "mean_anomaly": "3.596655538301238",
        "mean_motion": ".3602248279753371",
        "equinox": "J2000",
        "orbit_class": {
            "orbit_class_type": "AMO",
            "orbit_class_description": "Near-Earth asteroid orbits similar to that of 1221 Amor",
            "orbit_class_range": "1.017 AU < q (perihelion) < 1.3 AU"
        }
    },
    "is_sentry_object": false
}